satname,norad_id,inclination_deg,eccentricity,mean_motion_rev_per_day,perigee_km,apogee_km,l1,l2
STARLINK-1316,45415,53.1537,0.0001244,15.42175394,438.84214522219827,440.538420650194,1 45415U 20019BH  26194.50664665  .00023015  00000+0  53645-3 0  9997,2 45415  53.1537 259.5771 0001244 307.8122  52.2771 15.42175394349332
STARLINK-1286,45417,53.0423,0.000652,15.68314095,359.3285652173963,368.11995229881813,1 45417U 20019BK  26194.47332524  .00040353  00000+0  35577-3 0  9999,2 45417  53.0423 239.1718 0006520  15.0125 345.1083 15.68314095349842
STARLINK-1308,45419,53.0439,0.0003528,15.69298423,358.52724971261523,363.28231759516075,1 45419U 20019BM  26194.46850971  .00033927  00000+0  28851-3 0  9997,2 45419  53.0439 258.2446 0003528 121.5416 238.5945 15.69298423349324
STARLINK-1329,45531,53.0378,0.0003713,15.78351549,332.6182109745032,337.60346882041085,1 45531U 20025A   26194.33702542  .00055758  00000+0  31849-3 0  9992,2 45531  53.0378 180.4414 0003713  26.7279 333.3931 15.78351549345189
STARLINK-1338,45532,53.0394,0.0003027,15.75046161,342.46488596204836,346.5347702977979,1 45532U 20025B   26194.44982316  .00048066  00000+0  31851-3 0  9991,2 45532  53.0394 187.5535 0003027  67.5581 292.5758 15.75046161345098
STARLINK-1350,45535,53.068,0.0002244,15.40156262,444.11646752005163,447.1789821045468,1 45535U 20025E   26193.90655031  .00038717  00000+0  95592-3 0  9999,2 45535  53.0680 163.6467 0002244  72.9183 287.2067 15.40156262345423
STARLINK-1362,45538,53.1543,0.0005376,15.40477639,441.0306758496972,448.3665887215302,1 45538U 20025H   26194.51915604 -.00016301  00000+0 -38692-3 0  9990,2 45538  53.1543 232.2837 0005376 346.0102  14.0753 15.40477639344504
STARLINK-1368,45540,53.1534,0.0003957,15.40754527,441.18171694927696,446.58066214448536,1 45540U 20025K   26194.59318268  .00020859  00000+0  51059-3 0  9997,2 45540  53.1534 232.2534 0003957 345.2902  14.7988 15.40754527344504
STARLINK-1371,45542,53.0399,0.0002534,15.71950152,351.61815472902254,355.0296591166516,1 45542U 20025M   26194.31408891  .00039910  00000+0  30297-3 0  9990,2 45542  53.0399 198.8693 0002534  60.1976 299.9293 15.71950152344929
STARLINK-1372,45543,53.1542,0.0004271,15.41199518,439.6548543438921,445.4811005356214,1 45543U 20025N   26194.54147206  .00022219  00000+0  53523-3 0  9997,2 45543  53.1542 231.8821 0004271 338.0435  22.0387 15.41199518343600
STARLINK-1373,45544,53.0418,0.0002964,15.73734679,346.24051514089206,350.2279079951095,1 45544U 20025P   26194.40632806  .00046118  00000+0  32363-3 0  9991,2 45544  53.0418 193.0364 0002964  42.1007 318.0238 15.73734679345016
STARLINK-1327,45555,53.0359,0.0002408,15.75718785,340.9682225249162,344.20492299755824,1 45555U 20025AA  26194.31789461  .00046343  00000+0  29847-3 0  9996,2 45555  53.0359 170.5776 0002408  84.0754 276.0539 15.75718785345318
STARLINK-1356,45564,53.0392,0.0004661,15.6824589,360.7772594217249,367.0622047073557,1 45564U 20025AK  26194.45878546  .00032590  00000+0  28952-3 0  9999,2 45564  53.0392 184.4175 0004661  49.5229 310.6192 15.68245890345132
STARLINK-1357,45565,53.0417,0.0001218,15.73637143,347.6928421025232,349.33145383496776,1 45565U 20025AL  26194.00056240  .00056065  00000+0  39373-3 0  9992,2 45565  53.0417 142.1643 0001218 212.3622 147.7321 15.73637143345690
STARLINK-1361,45567,53.0382,0.0002663,15.72052038,351.24054547534706,354.82556664720596,1 45567U 20025AN  26194.54205907  .00038329  00000+0  28995-3 0  9990,2 45567  53.0382 181.8443 0002663  77.1261 283.0053 15.72052038345185
STARLINK-1376,45570,53.1541,0.0002355,15.41674956,439.5596655797117,442.7715571096551,1 45570U 20025AR  26194.37913842  .00031704  00000+0  74690-3 0  9992,2 45570  53.1541 208.9434 0002355 350.0425  10.0534 15.41674956344817
STARLINK-1320,45572,53.0347,0.0002431,16.0215584,266.83384884847874,270.0654192699585,1 45572U 20025AT  26194.06189488  .00329148  58271-4  55786-3 0  9996,2 45572  53.0347  75.1813 0002431 146.1798 213.9387 16.02155840346646
STARLINK-1321,45573,53.0389,0.0001878,15.72594782,350.22040770023887,352.7480534344395,1 45573U 20025AU  26194.41252568  .00043498  00000+0  32082-3 0  9993,2 45573  53.0389 166.2455 0001878  81.5573 278.5658 15.72594782345087
STARLINK-1331,45578,53.0431,0.0002052,15.72296426,350.95444415616294,353.7166300853969,1 45578U 20025AZ  26194.56818270  .00038760  00000+0  29016-3 0  9991,2 45578  53.0431 172.4529 0002052  76.8682 283.2565 15.72296426345325
STARLINK-1333,45580,53.1527,0.00038,15.38666095,447.4581001843344,452.64752444169244,1 45580U 20025BB  26194.36731389  .00050963  00000+0  13157-2 0  9994,2 45580  53.1527 211.2839 0003800 355.9351   4.1622 15.38666095344785
STARLINK-1335,45581,53.1526,0.0003585,15.4017304,443.1518586962393,448.0444768115185,1 45581U 20025BC  26194.35798505  .00021321  00000+0  53174-3 0  9997,2 45581  53.1526 207.6141 0003585 333.6678  26.4145 15.40173040344823
STARLINK-1337,45582,53.0403,0.0001764,15.80007844,329.23504262257484,331.6018209789145,1 45582U 20025BD  26194.49126076  .00061184  00000+0  32384-3 0  9992,2 45582  53.0403 159.9631 0001764 110.1788 249.9423 15.80007844345472
STARLINK-1347,45586,53.0345,0.0001604,15.72571754,350.47048555938,352.6293691256715,1 45586U 20025BH  26194.25086365  .00049437  00000+0  36411-3 0  9998,2 45586  53.0345 133.3611 0001604  74.8345 285.2850 15.72571754345826
STARLINK-1364,45589,53.0389,0.0004543,15.73306286,346.3988194669828,352.5115097077269,1 45589U 20025BL  26194.30446105  .00044866  00000+0  32074-3 0  9991,2 45589  53.0389 169.6077 0004543  50.7127 309.4293 15.73306286345323
STARLINK-1365,45590,53.0426,0.0002876,15.68427034,361.46174420217267,365.33947663568597,1 45590U 20025BM  26194.31652554  .00052714  00000+0  46075-3 0  9998,2 45590  53.0426 205.3692 0002876  53.3126 306.8154 15.68427034344845
STARLINK-1443,45660,53.1304,0.0002473,15.35251788,458.48160337190893,461.86383135811775,1 45660U 20035D   26194.43157487  .00023301  00000+0  67997-3 0  9991,2 45660  53.1304 200.3560 0002473  46.9435 313.1775 15.35251788338019
STARLINK-1446,45663,53.0196,0.0002658,15.49719194,415.7405620069994,419.3531475441987,1 45663U 20035G   26194.15247940  .00023081  00000+0  41574-3 0  9995,2 45663  53.0196 120.5025 0002658  16.0437 344.0654 15.49719194339086
STARLINK-1448,45665,53.0389,0.000217,15.77294404,336.6526784390144,339.5675296821755,1 45665U 20035J   26194.60575874  .00058186  00000+0  34819-3 0  9995,2 45665  53.0389 154.9667 0002170  98.8663 261.2602 15.77294404338639
STARLINK-1451,45668,53.0486,0.0002269,15.15806091,516.9675670119632,520.0972755953508,1 45668U 20035M   26194.45084346  .00013926  00000+0  73496-3 0  9997,2 45668  53.0486 215.6578 0002269   8.8945 351.2088 15.15806091337785
STARLINK-1452,45669,53.0213,0.0006891,15.64835601,369.0589110737128,378.36430882794775,1 45669U 20035N   26194.23154470  .00034581  00000+0  35162-3 0  9998,2 45669  53.0213 134.7688 0006891  70.0820 290.0936 15.64835601338893
STARLINK-1453,45670,53.0358,0.0001821,15.78173797,334.3923380955821,336.8374865420483,1 45670U 20035P   26194.62492690  .00068700  00000+0  39416-3 0  9998,2 45670  53.0358 115.0035 0001821 164.1427 195.9651 15.78173797339095
STARLINK-1454,45671,53.0389,0.0001804,15.75639266,341.6002314892057,344.0251501376515,1 45671U 20035Q   26194.01230509  .00066260  00000+0  42548-3 0  9990,2 45671  53.0389 159.5715 0001804  84.4225 275.6999 15.75639266338511
STARLINK-1456,45673,53.0388,0.0001605,15.71974619,352.17367059153185,354.3344471214241,1 45673U 20035S   26194.29068580  .00046683  00000+0  35299-3 0  9992,2 45673  53.0388 153.4168 0001605  87.7302 272.3899 15.71974619338645
STARLINK-1458,45675,53.0429,0.0004598,15.63659423,373.99093700274807,380.2030501832569,1 45675U 20035U   26194.00087252  .00144588  00000+0  15022-2 0  9994,2 45675  53.0429 171.7167 0004598  48.8518 311.2891 15.63659423338320
STARLINK-1460,45676,53.1541,0.0004807,15.38328824,447.768016539364,454.3335976971275,1 45676U 20035V   26194.34724769  .00029555  00000+0  77784-3 0  9993,2 45676  53.1541 198.6151 0004807  18.6213 341.4966 15.38328824337998
STARLINK-1392,45677,53.1518,0.0005343,15.41861071,436.9735771092901,444.26009745981264,1 45677U 20035W   26194.41607187  .00030956  00000+0  72485-3 0  9996,2 45677  53.1518 196.0457 0005343   5.8724 354.2344 15.41861071338077
STARLINK-1394,45679,53.0376,0.0001639,15.70419655,356.59275106908626,358.80075737372044,1 45679U 20035Y   26194.25176227  .00040974  00000+0  33146-3 0  9998,2 45679  53.0376 144.1354 0001639 100.0427 260.0774 15.70419655338768
STARLINK-1402,45685,53.0388,0.0001221,15.67572496,365.0269772661486,366.6738589936558,1 45685U 20035AE  26194.27079946  .00034689  00000+0  31641-3 0  9991,2 45685  53.0388 136.4659 0001221 115.8223 244.2919 15.67572496338882
STARLINK-1404,45686,53.1529,0.0005028,15.47854381,419.58431619004205,426.42354350909864,1 45686U 20035AF  26194.00956748  .00051686  00000+0  97936-3 0  9992,2 45686  53.1529 178.0690 0005028   7.8329 352.2757 15.47854381338293
STARLINK-1413,45689,53.1534,0.0004848,15.38064724,448.5213721684322,455.1437106357753,1 45689U 20035AJ  26194.45409629  .00022046  00000+0  58841-3 0  9995,2 45689  53.1534 182.7906 0004848  19.7889 340.3303 15.38064724338183
STARLINK-1417,45693,53.0462,0.0002785,15.1842316,508.68715327843256,512.5241829445713,1 45693U 20035AN  26194.42273075  .00012151  00000+0  59742-3 0  9998,2 45693  53.0462 201.7890 0002785 310.2870  49.7880 15.18423160337964
STARLINK-1420,45695,53.042,0.0001265,15.747248,344.5638797694746,346.2649382759573,1 45695U 20035AQ  26193.99465497  .00061745  00000+0  41308-3 0  9994,2 45695  53.0420 127.6837 0001265 149.4308 210.6785 15.74724800338979
STARLINK-1422,45696,53.153,0.0001789,15.39851599,445.3268261659241,447.768698373864,1 45696U 20035AR  26193.19981797  .00033796  00000+0  84468-3 0  9992,2 45696  53.1530 188.3862 0001789  77.9135 282.2071 15.39851599338070
